STARLINK-35908          
1 66639U 25271Y   26068.41543000  .00033595  00000+0  11414-2 0  9993
2 66639  53.1576 141.2786 0002125 151.2114 208.9004 15.30194279 17522
GLOBAL-34               
1 68098U 26043A   26068.47466435  .00014018  00000+0  45822-3 0  9994
2 68098  42.0215  76.7399 0006884 289.2632  70.7460 15.31488019   538
